GPS BIIR-2  (PRN 13)    
1 24876U 97035A   24020.20371475 -.00000024  00000+0  00000+0 0  9993
2 24876  55.6254 132.9567 0075841  53.2418 307.4301  2.00565124194329
GPS BIIR-4  (PRN 20)    
1 26360U 00025A   24020.09953764 -.00000070  00000+0  00000+0 0  9991
2 26360  54.5462  54.9637 0040716 210.0540 165.1126  2.00560528173640
GPS BIIR-5  (PRN 22)    
1 26407U 00040A   24020.03130098  .00000051  00000+0  00000+0 0  9999
2 26407  55.1326 250.1207 0148659 293.9643 232.6582  2.00557963172318
GPS BIIR-8  (PRN 16)    
1 27663U 03005A   24020.62265684  .00000056  00000+0  00000+0 0  9998
2 27663  55.1731 249.9079 0137706  46.2444 324.4860  2.00558091153697
GPS BIIR-9  (PRN 21)    
1 27704U 03010A   24020.47607382 -.00000096  00000+0  00000+0 0  9993
2 27704  55.1152 359.7926 0253449 322.6094 159.5864  2.00557191152483
GPS BIIR-13 (PRN 02)    
1 28474U 04045A   24020.57207031 -.00000095  00000+0  00000+0 0  9994
2 28474  55.4431   0.1572 0164929 287.5890 251.7101  2.00537925140807
GPS BIIRM-1 (PRN 17)    
1 28874U 05038A   24020.59699781 -.00000084  00000+0  00000+0 0  9998
2 28874  55.6274 308.4236 0139025 282.6555 251.3149  2.00565863134210
GPS BIIRM-2 (PRN 31)    
1 29486U 06042A   24020.56223795  .00000079  00000+0  00000+0 0  9992
2 29486  54.6815 186.1751 0104780  36.4001  12.7165  2.00563338126778
GPS BIIRM-3 (PRN 12)    
1 29601U 06052A   24019.92483904  .00000053  00000+0  00000+0 0  9992
2 29601  55.1987 248.9040 0087013  80.3573 280.6937  2.00557676125772
GPS BIIRM-4 (PRN 15)    
1 32260U 07047A   24020.23128415 -.00000050  00000+0  00000+0 0  9999
2 32260  53.5300 116.4238 0152280  73.5328 288.1337  2.00572108119189
GPS BIIRM-5 (PRN 29)    
1 32384U 07062A   24020.30893831 -.00000085  00000+0  00000+0 0  9990
2 32384  55.7632 309.2766 0024165 148.9521  35.4236  2.00565757117886
GPS BIIRM-6 (PRN 07)    
1 32711U 08012A   24020.14846844  .00000082  00000+0  00000+0 0  9990
2 32711  54.4514 184.9904 0180240 236.8245 121.4213  2.00562577116128
GPS BIIRM-8 (PRN 05)    
1 35752U 09043A   24020.25607303 -.00000067  00000+0  00000+0 0  9994
2 35752  55.5486  62.2115 0055412  69.8533  20.9474  2.00549917105734
GPS BIIF-1  (PRN 25)    
1 36585U 10022A   24020.21203089  .00000065  00000+0  00000+0 0  9994
2 36585  54.5031 244.0171 0115508  60.7219 121.1036  2.00569046 99960
GPS BIIF-3  (PRN 24)    
1 38833U 12053A   24019.82154969  .00000076  00000+0  00000+0 0  9997
2 38833  53.5147 179.5718 0148872  54.7158 306.6466  2.00556123 81802
GPS BIIF-4  (PRN 27)    
1 39166U 13023A   24020.18601684 -.00000078  00000+0  00000+0 0  9990
2 39166  55.2409 304.5811 0120742  42.2665 318.6777  2.00563404 78250
GPS BIIF-5  (PRN 30)    
1 39533U 14008A   24020.18897527  .00000080  00000+0  00000+0 0  9997
2 39533  53.5994 185.1339 0068464 215.7975 143.7285  2.00559477 72057
GPS BIIF-7  (PRN 09)    
1 40105U 14045A   24020.05775356 -.00000038  00000+0  00000+0 0  9990
2 40105  54.8671 123.5686 0026528 117.3761 242.8855  2.00555731 68447
GPS BIIF-9  (PRN 26)    
1 40534U 15013A   24020.56755950  .00000071  00000+0  00000+0 0  9992
2 40534  53.4013 240.5589 0086519  28.5069 332.0308  2.00574723 64207
GPS BIIF-10 (PRN 08)    
1 40730U 15033A   24020.23027037 -.00000076  00000+0  00000+0 0  9990
2 40730  54.7267 303.1264 0091517  16.0510 344.2598  2.00574706 62365
GPS BIIF-11 (PRN 10)    
1 41019U 15062A   24020.28195712 -.00000066  00000+0  00000+0 0  9993
2 41019  56.2761  64.9079 0094421 224.1003 135.1994  2.00562260 60204
GPS BIIF-12 (PRN 32)    
1 41328U 16007A   24019.86738293 -.00000034  00000+0  00000+0 0  9990
2 41328  55.0671 124.3853 0076137 235.2928 123.9800  2.00568998 58200
GPS BIII-2  (PRN 18)    
1 44506U 19056A   24020.39043780 -.00000090  00000+0  00000+0 0  9990
2 44506  55.8382   5.9716 0038759 190.7191 338.3809  2.00568758 32448
GPS BIII-3  (PRN 23)    
1 45854U 20041A   24020.34020230 -.00000066  00000+0  00000+0 0  9996
2 45854  55.9982  63.2797 0040036 192.5122 241.2825  2.00560304 26412
GPS BIII-4  (PRN 14)    
1 46826U 20078A   24020.03104903  .00000058  00000+0  00000+0 0  9992
2 46826  54.2436 246.4688 0039207 193.2694 354.0738  2.00561877 23871
GPS BIII-5  (PRN 11)    
1 48859U 21054A   24020.02484082 -.00000088  00000+0  00000+0 0  9997
2 48859  55.3592   7.7067 0014276 225.5953 142.2680  2.00566184 19121
GPS BIII-6  (PRN 28)    
1 55268U 23009A   24020.47440650  .00000076  00000+0  00000+0 0  9999
2 55268  55.0880 182.9965 0004898 101.8911 268.5335  2.00574727  7625
